TELSTAR 14R             
1 37602U 11021A   25119.18837709 -.00000281  00000+0  00000+0 0  9994
2 37602   0.0455  74.8055 0002999 316.2205 191.1888  1.00270865 51631
GSAT-8                  
1 37605U 11022A   25119.18287120  .00000085  00000+0  00000+0 0  9995
2 37605   1.0600  87.0395 0004691 215.1470  36.1162  1.00270347 51090
ST-2                    
1 37606U 11022B   25119.04661436 -.00000211  00000+0  00000+0 0  9999
2 37606   0.0411  89.7773 0001506 317.8911 274.3851  1.00270176 51092
ZHONGXING-10            
1 37677U 11026A   25118.90828560 -.00000352  00000+0  00000+0 0  9994
2 37677   0.0265 268.4722 0001768 244.7428 141.3927  1.00269241 50848
SES-3                   
1 37748U 11035A   25119.15150738 -.00000102  00000+0  00000+0 0  9999
2 37748   0.2546  86.0257 0002551 304.1486 138.7167  1.00271435 50545
KAZSAT-2                
1 37749U 11035B   25118.83209153 -.00000197  00000+0  00000+0 0  9994
2 37749   0.0387 286.6214 0000215 162.4667 153.9872  1.00269473 49245
BEIDOU-2 IGSO-4         
1 37763U 11038A   25118.09348144  .00000011  00000+0  00000+0 0  9999
2 37763  54.5699 169.3853 0142064 230.7582 303.2128  1.00287451 50489
ASTRA 1N                
1 37775U 11041A   25118.53310052  .00000120  00000+0  00000+0 0  9993
2 37775   0.0649  30.9604 0005699   5.4141  31.4794  1.00270684 40365
BSAT-3C (JCSAT-110R)    
1 37776U 11041B   25118.97952750 -.00000351  00000+0  00000+0 0  9996
2 37776   0.0095  54.8495 0000182  17.7523 247.1758  1.00272028 50367
PAKSAT-1R               
1 37779U 11042A   25119.17948287  .00000153  00000+0  00000+0 0  9992
2 37779   0.0479  85.7738 0001653 308.2433 285.9740  1.00266051 50136
SES-2                   
1 37809U 11049A   25118.86910257 -.00000195  00000+0  00000+0 0  9991
2 37809   0.0226   5.3963 0002763  37.8800  39.6765  1.00269797 49807
ARABSAT-5C              
1 37810U 11049B   25119.17592078  .00000123  00000+0  00000+0 0  9995
2 37810   0.0536 356.1251 0002464  77.9489 226.6596  1.00272869 49765
EUTELSAT 7 WEST A       
1 37816U 11051A   25119.17044730 -.00000061  00000+0  00000+0 0  9993
2 37816   0.0803  37.7292 0001783  45.2008 188.5053  1.00272758 49810
QUETZSAT 1              
1 37826U 11054A   25118.87110082 -.00000241  00000+0  00000+0 0  9997
2 37826   0.0187 346.5383 0002588  58.1398  49.0076  1.00270603 45726
INTELSAT 18 (IS-18)     
1 37834U 11056A   25119.13621645  .00000052  00000+0  00000+0 0  9999
2 37834   0.0151 266.6543 0001820 134.5742  45.1493  1.00271102 49691
EUTELSAT 16A            
1 37836U 11057A   25118.81810380  .00000104  00000+0  00000+0 0  9990
2 37836   0.0742  21.4289 0005524  21.6908 124.4296  1.00273904  3175
VIASAT-1                
1 37843U 11059A   25118.57143948 -.00000022  00000+0  00000+0 0  9992
2 37843   0.0162 266.4329 0002078 138.7514 262.2070  1.00269921 43167
ASIASAT 7               
1 37933U 11069A   25119.05008958 -.00000334  00000+0  00000+0 0  9994
2 37933   0.0450 104.4808 0001467 246.4712 349.8394  1.00273172 49304
BEIDOU-2 IGSO-5         
1 37948U 11073A   25118.90515792 -.00000184  00000+0  00000+0 0  9990
2 37948  48.4354 276.6514 0103055 218.9071 142.0831  1.00259096 49244
LUCH-5A                 
1 37951U 11074B   25118.70520336 -.00000047  00000+0  00000+0 0  9991
2 37951   7.6991  80.0105 0002463 326.5531 231.2932  1.00267844 48896
NIGCOMSAT 1R            
1 38014U 11077A   25119.18035168  .00000144  00000+0  00000+0 0  9999
2 38014   0.0102 289.0187 0000765  87.2604 308.5042  1.00270252 48880
WGS F4 (USA 233)        
1 38070U 12003A   25118.90385471 -.00000214  00000+0  00000+0 0  9994
2 38070   0.0106 259.1232 0000576 347.3372  24.4220  1.00268959 39992
SES-4                   
1 38087U 12007A   25118.29558954 -.00000167  00000+0  00000+0 0  9993
2 38087   0.0198  12.3701 0002275  33.6664 254.9018  1.00270865 48060
BEIDOU-2 G5             
1 38091U 12008A   25119.18356625  .00000058  00000+0  00000+0 0  9997
2 38091   2.5430  71.2496 0010971 263.7549   7.2399  1.00264933 48325
MUOS-1                  
1 38093U 12009A   25118.86649616 -.00000126  00000+0  00000+0 0  9996
2 38093   4.6441  46.6594 0058802   0.4184  21.9241  1.00270405 48299
INTELSAT 22 (IS-22)     
1 38098U 12011A   25118.90064013 -.00000058  00000+0  00000+0 0  9995
2 38098   0.0255 103.2595 0001747 295.7434 214.4320  1.00267861  3033
APSTAR-7                
1 38107U 12013A   25118.90150894 -.00000102  00000+0  00000+0 0  9991
2 38107   0.0461  87.0319 0002512 322.3719 208.7573  1.00270814 47654
YAHSAT 1B               
1 38245U 12016A   25118.89577483  .00000126  00000+0  00000+0 0  9997
2 38245   0.0993  89.6142 0002516 314.9437 182.6293  1.00270069 41449
AEHF-2 (USA 235)        
1 38254U 12019A   25119.16862281 -.00000135  00000+0  00000+0 0  9995
2 38254   5.6924  60.2160 0002860 343.6974 217.6867  1.00271512 47521
JCSAT-13                
1 38331U 12023A   25118.98586465 -.00000356  00000+0  00000+0 0  9997
2 38331   0.0150 272.4208 0002392 156.5512 267.1417  1.00271707 47422
VINASAT-2               
1 38332U 12023B   25117.98424421 -.00000327  00000+0  00000+0 0  9998
2 38332   0.0464  64.4145 0002175 347.1953 290.7697  1.00270512 42493
NIMIQ 6                 
1 38342U 12026A   25118.86823377 -.00000173  00000+0  00000+0 0  9992
2 38342   0.0650  79.4715 0002626 311.5240  47.5449  1.00270948 46259
ZHONGXING-2A            
1 38352U 12028A   25119.04861262 -.00000293  00000+0  00000+0 0  9994
2 38352   0.3820  90.6030 0000865 350.1745 252.2399  1.00271907 47480
INTELSAT 19 (IS-19)     
1 38356U 12030A   25119.13343628 -.00000057  00000+0  00000+0 0  9990
2 38356   0.0198 273.3516 0002739 122.1808  35.8544  1.00272452 47367
ECHOSTAR 17             
1 38551U 12035A   25118.00831007 -.00000073  00000+0  00000+0 0  9998
2 38551   0.0105 248.4567 0001877 139.3314  84.3203  1.00269158 46904
METEOSAT-10 (MSG-3)     
1 38552U 12035B   25119.17201116 -.00000006  00000+0  00000+0 0  9996
2 38552   3.6944  62.0541 0000475 322.6636 254.8693  1.00265985 47063
SES-5                   
1 38652U 12036A   25119.17287995  .00000033  00000+0  00000+0 0  9996
2 38652   0.0445 309.7166 0001719  83.5954 251.2837  1.00270947 46911
INTELSAT 20 (IS-20)     
1 38740U 12043A   25118.89994509 -.00000025  00000+0  00000+0 0  9998
2 38740   0.0226 145.9846 0002440  37.4520  66.1520  1.00271812 46598
HYLAS 2                 
1 38741U 12043B   25118.87196962 -.00000257  00000+0  00000+0 0  9991
2 38741   1.3561  86.1847 0000991 321.9747  50.3668  1.00271868 46626
INTELSAT 21 (IS-21)     
1 38749U 12045A   25118.87483668 -.00000284  00000+0  00000+0 0  9993
2 38749   0.0554  87.3950 0001730 310.3736  76.2874  1.00272261 46378
ASTRA 2F                
1 38778U 12051A   25119.17748462  .00000149  00000+0  00000+0 0  9991
2 38778   0.0299 243.7000 0000911  33.2445  32.5085  1.00272950 46147
GSAT-10                 
1 38779U 12051B   25118.90281214 -.00000165  00000+0  00000+0 0  9998
2 38779   0.0445 259.8522 0007071 185.9683 179.3104  1.00271294 45940
INTELSAT 23 (IS-23)     
1 38867U 12057A   25118.80437671 -.00000284  00000+0  00000+0 0  9993
2 38867   0.0252 156.7921 0000454 109.1019 187.7266  1.00280876 45792
BEIDOU-2 G6             
1 38953U 12059A   25118.90298590 -.00000175  00000+0  00000+0 0  9996
2 38953   3.3686  77.7722 0010323 309.4242 239.0055  1.00273126 45758
LUCH-5B                 
1 38977U 12061A   25119.09729404 -.00000138  00000+0  00000+0 0  9998
2 38977   9.5856  53.8527 0001310 151.3854  30.8247  1.00271356 46022
YAMAL 300K              
1 38978U 12061B   25118.77978957  .00000071  00000+0  00000+0 0  9997
2 38978   0.0106 282.9679 0000532 352.5057  45.1845  1.00270921 45473
STAR ONE C3             
1 38991U 12062A   25118.87144834 -.00000249  00000+0  00000+0 0  9991
2 38991   0.0121 276.1991 0001937 134.0950  45.5041  1.00272384 45604
EUTELSAT 21B            
1 38992U 12062B   25119.17618141  .00000129  00000+0  00000+0 0  9999
2 38992   0.0718 349.2152 0002865  54.7559 258.4460  1.00272969 45724
ECHOSTAR 16             
1 39008U 12065A   25118.80272598 -.00000281  00000+0  00000+0 0  9992
2 39008   0.0094 234.2891 0001890 166.0410  44.1664  1.00271893 45465
ZHONGXING-12            
1 39017U 12067A   25119.04644060 -.00000207  00000+0  00000+0 0  9996
2 39017   0.0518  86.4819 0002711 304.2497 290.7391  1.00270574 45558
EUTELSAT 70B            
1 39020U 12069A   25119.21641964 -.00000045  00000+0  00000+0 0  9991
2 39020   0.0679 350.5356 0004559  39.7545 335.5492  1.00273080 45462
YAMAL 402               
1 39022U 12070A   25118.89716492  .00000086  00000+0  00000+0 0  9991
2 39022   0.1999  90.7660 0003763 306.5758 197.6428  1.00272089 45248
SKYNET 5D               
1 39034U 12075A   25119.18234992  .00000099  00000+0  00000+0 0  9996
2 39034   0.0701   9.2934 0003306  28.7909 297.7008  1.00272044 45364
MEXSAT 3                
1 39035U 12075B   25118.57143902 -.00000024  00000+0  00000+0 0  9998
2 39035   0.0180 240.1188 0001794 147.1948 280.3829  1.00270493  2897
TDRS 11                 
1 39070U 13004A   25119.14661060  .00000078  00000+0  00000+0 0  9992
2 39070   2.9883  21.9803 0005563  18.3655  55.5348  1.00265690 44839
AMAZONAS 3              
1 39078U 13006A   25118.87422851 -.00000282  00000+0  00000+0 0  9992
2 39078   0.0382 125.8112 0001230 237.9161 107.0641  1.00268391 44813
AZERSPACE 1             
1 39079U 13006B   25118.53848709  .00000134  00000+0  00000+0 0  9995
2 39079   0.0445  81.3312 0001123 324.7581  50.5032  1.00271370 44653
SBIRS GEO-2 (USA 241)   
1 39120U 13011A   25118.09105076 -.00000284  00000+0  00000+0 0  9999
2 39120   3.6074  50.9780 0002181 340.5751 167.7352  1.00271440 44371
EUTELSAT 117 WEST A     
1 39122U 13012A   25118.56972801 -.00000012  00000+0  00000+0 0  9991
2 39122   0.0288  30.2217 0002642   0.2567 274.6043  1.00272515 44272
